ONEWEB-0435             
1 51632U 22012L   25345.81428004 -.00000706  00000+0 -20604-2 0  9998
2 51632  87.8804  73.6384 0001966  95.5259 264.6092 13.10371864184772
ONEWEB-0436             
1 51633U 22012M   25346.18143056 -.00000137  00000+0 -38494-3 0  9996
2 51633  87.9123  43.0198 0001776  93.1310 267.0025 13.17649026189057
ONEWEB-0438             
1 51634U 22012N   25346.17947251  .00000057  00000+0  12712-3 0  9999
2 51634  87.8806  73.5664 0001695 112.3544 247.7763 13.10368620184852
ONEWEB-0439             
1 51635U 22012P   25346.18279669 -.00000099  00000+0 -32005-3 0  9997
2 51635  87.8803  73.5541 0001744 105.5665 254.5655 13.10369652184837
ONEWEB-0442             
1 51636U 22012Q   25346.17382880  .00000020  00000+0  19256-4 0  9993
2 51636  87.9111  43.0690 0001600 121.1761 238.9527 13.17650859189041
ONEWEB-0443             
1 51637U 22012R   25346.11730640 -.00000217  00000+0 -59150-3 0  9995
2 51637  87.9105  43.0852 0002006 107.2425 252.8926 13.17648771189080
ONEWEB-0444             
1 51638U 22012S   25346.17284307  .00000446  00000+0  12425-2 0  9991
2 51638  87.8803  73.5546 0001722 105.5201 254.6116 13.10369674184845
ONEWEB-0445             
1 51639U 22012T   25345.81261690 -.00000642  00000+0 -18768-2 0  9998
2 51639  87.8819  73.5934 0001543 106.4705 253.6592 13.10371371184804
